ONEWEB-0584             
1 54651U 22166K   24052.49758355  .00000101  00000+0  21386-3 0  9991
2 54651  87.9214  52.4966 0002087  99.4954 260.6416 13.21825644 59660
ONEWEB-0585             
1 54652U 22166L   24052.52281705 -.00000001  00000+0 -33571-4 0  9997
2 54652  87.9216  52.4976 0002115  84.4130 275.7245 13.21826914 59675
ONEWEB-0586             
1 54653U 22166M   24052.53542747  .00000037  00000+0  57000-4 0  9995
2 54653  87.9209  52.5175 0002050  95.0911 265.0457 13.21824774 59672
ONEWEB-0587             
1 54654U 22166N   24052.69627253  .00000069  00000+0  13459-3 0  9993
2 54654  87.9207  52.4426 0001829  78.2943 281.8396 13.21825483 60319
ONEWEB-0589             
1 54655U 22166P   24052.53227292 -.00000006  00000+0 -45241-4 0  9994
2 54655  87.9211  52.5020 0002325 114.7516 245.3860 13.21826664 59692
ONEWEB-0590             
1 54656U 22166Q   24052.70732062  .00000101  00000+0  21271-3 0  9990
2 54656  87.9216  52.4698 0001666  85.6877 274.4448 13.21824258 60167
ONEWEB-0591             
1 54657U 22166R   24052.49284132  .00000060  00000+0  11270-3 0  9999
2 54657  87.9213  52.5137 0001938  94.3289 265.8066 13.21825561 59706
ONEWEB-0592             
1 54658U 22166S   24052.49600180  .00000082  00000+0  16788-3 0  9998
2 54658  87.9207  52.4828 0001899  98.1915 261.9434 13.21826875 59581
ONEWEB-0593             
1 54659U 22166T   24052.51966460  .00000004  00000+0 -20826-4 0  9992
2 54659  87.9211  52.4991 0001976  97.2616 262.8743 13.21827412 59695
ONEWEB-0594             
1 54660U 22166U   24052.53858552  .00000043  00000+0  73200-4 0  9994
2 54660  87.9215  52.4913 0002073  85.1845 274.9525 13.21825516 59712
ONEWEB-0595             
1 54661U 22166V   24052.51650530  .00000022  00000+0  21476-4 0  9994
2 54661  87.9210  52.4858 0001704  82.0044 278.1284 13.21825482 59689
ONEWEB-0596             
1 54662U 22166W   24052.48969137  .00000127  00000+0  27595-3 0  9990
2 54662  87.9213  52.4942 0001778 100.9968 259.1366 13.21824727 59684
ONEWEB-0597             
1 54663U 22166X   24052.54647239  .00000074  00000+0  14789-3 0  9996
2 54663  87.9215  52.4844 0002152  97.9397 262.1981 13.21825179 59696
ONEWEB-0600             
1 54664U 22166Y   24052.52911935 -.00000467  00000+0 -11634-2 0  9995
2 54664  87.9208  52.5350 0002121  93.6264 266.5112 13.21823131 59661
ONEWEB-0601             
1 54665U 22166Z   24052.52124362 -.00000028  00000+0 -10039-3 0  9998
2 54665  87.9214  52.4919 0002027 105.5540 254.5817 13.21826798 59856
ONEWEB-0602             
1 54666U 22166AA  24052.56224274  .00000114  00000+0  24557-3 0  9990
2 54666  87.9216  52.4887 0002107  97.7642 262.3732 13.21825700 59706
ONEWEB-0603             
1 54667U 22166AB  24052.49126326  .00000129  00000+0  27978-3 0  9998
2 54667  87.9218  52.5021 0002125 101.0191 259.1182 13.21826123 59622
ONEWEB-0604             
1 54668U 22166AC  24052.55435830  .00000140  00000+0  30689-3 0  9995
2 54668  87.9209  52.4777 0002264  86.0100 274.1292 13.21825453 59596
ONEWEB-0605             
1 54669U 22166AD  24052.69943284  .00000056  00000+0  10400-3 0  9993
2 54669  87.9208  52.4825 0001955 110.5619 249.5725 13.21828104 60151
ONEWEB-0606             
1 54670U 22166AE  24052.49442279  .00000157  00000+0  34979-3 0  9990
2 54670  87.9214  52.5069 0001858  82.2953 277.8391 13.21824624 59715
ONEWEB-0607             
1 54671U 22166AF  24052.68839013  .00000030  00000+0  40640-4 0  9991
2 54671  87.9211  52.4497 0002112  97.3637 262.7737 13.21825306 60174
ONEWEB-0608             
1 54672U 22166AG  24052.54330714  .00000158  00000+0  35110-3 0  9997
2 54672  87.9215  52.4937 0002089 108.3506 251.7855 13.21826113 59702
ONEWEB-0610             
1 54673U 22166AH  24052.52438366  .00000024  00000+0  27767-4 0  9990
2 54673  87.9213  52.4980 0002022 104.3230 255.8129 13.21826191 59600
ONEWEB-0611             
1 54674U 22166AJ  24052.51807976  .00000105  00000+0  22225-3 0  9990
2 54674  87.9213  52.4990 0002034  76.0675 284.0685 13.21823746 59595
ONEWEB-0612             
1 54675U 22166AK  24052.53069795  .00000015  00000+0  37250-5 0  9998
2 54675  87.9209  52.4806 0001943  99.6761 260.4592 13.21824390 59582
ONEWEB-0615             
1 54676U 22166AL  24052.51176938  .00000048  00000+0  83903-4 0  9996
2 54676  87.9210  52.5087 0002181  93.4808 266.6575 13.21826059 59590
ONEWEB-0655             
1 54677U 22166AM  24052.71205052  .00000083  00000+0  16892-3 0  9990
2 54677  87.9211  52.4699 0002501  92.9745 267.1675 13.21826252 60088
ONEWEB-0659             
1 54678U 22166AN  24052.50230995  .00000114  00000+0  24530-3 0  9995
2 54678  87.9210  52.5204 0001718  81.2371 278.8958 13.21825134 59670
ONEWEB-0685             
1 54679U 22166AP  24052.50387970 -.00001211  00000+0 -29634-2 0  9992
2 54679  87.9210  52.5079 0002288  95.9832 264.1562 13.21830848 59563
ONEWEB-0712             
1 54680U 22166AQ  24052.48476025  .00000165  00000+0  39854-3 0  9992
2 54680  87.9062  37.2890 0002063  73.8622 286.2735 13.16592898 60646
ONEWEB-0714             
1 54681U 22166AR  24052.51019169  .00000018  00000+0  11294-4 0  9995
2 54681  87.9213  52.4907 0002178  95.5848 264.5534 13.21824600 59684
ONEWEB-0532             
1 55140U 23004A   24052.57223639  .00000105  00000+0  23668-3 0  9997
2 55140  87.9258 174.2502 0001334 136.5393 223.5844 13.17650034 56096
ONEWEB-0533             
1 55141U 23004B   24052.53947137 -.00000180  00000+0 -53619-3 0  9994
2 55141  87.9051 159.1133 0001928 108.8620 251.2718 13.12443081 57001
ONEWEB-0541             
1 55142U 23004C   24052.44207934  .00000413  00000+0  11292-2 0  9996
2 55142  87.9013 189.3816 0001568 108.2209 251.9090 13.11415223 54968
ONEWEB-0543             
1 55143U 23004D   24052.61011689  .00000075  00000+0  15846-3 0  9990
2 55143  87.9232 144.0456 0002098  97.2211 262.9159 13.18685810 58127
ONEWEB-0544             
1 55144U 23004E   24052.52791963  .00000080  00000+0  17007-3 0  9998
2 55144  87.9235 144.0454 0001696 104.5488 255.5832 13.18685481 58119
ONEWEB-0560             
1 55145U 23004F   24052.74922584  .00000007  00000+0 -13836-4 0  9995
2 55145  87.9238 143.9455 0001794  91.8284 268.3053 13.18685320 58156
ONEWEB-0565             
1 55146U 23004G   24052.74289716  .00000019  00000+0  15926-4 0  9993
2 55146  87.9232 144.0304 0001157 124.8084 235.3157 13.18685751 58140
ONEWEB-0567             
1 55147U 23004H   24052.81245784 -.00000054  00000+0 -16927-3 0  9991
2 55147  87.9232 143.9693 0001453  89.6202 270.5097 13.18685393 58156
ONEWEB-0569             
1 55148U 23004J   24052.59792757  .00000074  00000+0  16660-3 0  9998
2 55148  87.8986 128.7266 0001453  65.7176 294.4104 13.13470480 59041
ONEWEB-0570             
1 55149U 23004K   24052.79980724 -.00000395  00000+0 -10343-2 0  9993
2 55149  87.9239 143.9669 0001499 125.1693 234.9580 13.18686819 58142
ONEWEB-0571             
1 55150U 23004L   24052.48997533  .00000035  00000+0  56938-4 0  9998
2 55150  87.9238 144.0325 0000785  86.0986 274.0236 13.18683463 58113
ONEWEB-0572             
1 55151U 23004M   24052.83167447  .00000008  00000+0 -13098-4 0  9992
2 55151  87.9255 174.2065 0001471 111.9513 248.1775 13.17649288 56020
ONEWEB-0573             
1 55152U 23004N   24052.48365137  .00000072  00000+0  15005-3 0  9999
2 55152  87.9233 144.0604 0000789 114.5738 245.5476 13.18686920 58105
ONEWEB-0588             
1 55153U 23004P   24052.47733299  .00000114  00000+0  25563-3 0  9994
2 55153  87.9237 144.0223 0001561 128.0587 232.0686 13.18685772 58106
ONEWEB-0598             
1 55154U 23004Q   24052.79921325 -.00000351  00000+0 -10258-2 0  9998
2 55154  87.9013 189.3506 0000953  83.1226 277.0010 13.11416867 54971
ONEWEB-0599             
1 55155U 23004R   24052.79213016  .00000039  00000+0  67669-4 0  9991
2 55155  87.9262 174.1913 0001607  99.2472 260.8842 13.17649982 56023
ONEWEB-0614             
1 55156U 23004S   24052.79434631 -.00000461  00000+0 -13362-2 0  9990
2 55156  87.9015 189.3539 0001787 118.8703 241.2604 13.11418298 54920
ONEWEB-0616             
1 55157U 23004T   24052.83484758 -.00000003  00000+0 -39660-4 0  9994
2 55157  87.9258 174.1964 0002599  82.1892 277.9534 13.17648851 56249
ONEWEB-0617             
1 55158U 23004U   24052.63038601 -.00000442  00000+0 -12831-2 0  9991
2 55158  87.9008 189.3865 0001554 122.1774 237.9505 13.11415241 54909
ONEWEB-0618             
1 55159U 23004V   24052.76105929  .00000192  00000+0  71703-4 0  9999
2 55159  86.9108 134.6289 0011380 305.9053  54.1083 14.26738316 58746
ONEWEB-0619             
1 55160U 23004W   24052.56274701  .00000071  00000+0  15024-3 0  9993
2 55160  87.9259 174.2263 0002418 106.2293 253.9105 13.17649800 56108
ONEWEB-0620             
1 55161U 23004X   24052.62551746 -.00000365  00000+0 -10648-2 0  9992
2 55161  87.9010 189.3946 0001287 122.2612 237.8641 13.11415537 54875
ONEWEB-0621             
1 55162U 23004Y   24052.42260730 -.00000051  00000+0 -17944-3 0  9990
2 55162  87.9009 189.4067 0001957 111.4841 248.6496 13.11418361 54828
ONEWEB-0622             
1 55163U 23004Z   24052.42909988  .00000218  00000+0  57794-3 0  9996
2 55163  87.9012 189.4200 0001626 140.1934 219.9314 13.11417375 54810
ONEWEB-0623             
1 55164U 23004AA  24052.63393200  .00000096  00000+0  21534-3 0  9991
2 55164  87.9259 174.2654 0002018 133.1030 227.0271 13.17649308 56109
ONEWEB-0624             
1 55165U 23004AB  24052.58235865  .00000424  00000+0  11438-2 0  9994
2 55165  87.9049 159.1129 0001870 115.5432 244.5890 13.12444465 57004
ONEWEB-0625             
1 55166U 23004AC  24052.62286146  .00000064  00000+0  13167-3 0  9990
2 55166  87.9258 174.2665 0002077 103.7184 256.4179 13.17649404 56098
ONEWEB-0626             
1 55167U 23004AD  24052.84116954 -.00000022  00000+0 -90443-4 0  9993
2 55167  87.9256 174.2248 0001052 105.0885 255.0363 13.17649143 56123
